NORAD_CAT_ID,OBJECT_NAME,OBJECT_TYPE,EPOCH,MEAN_MOTION,ECCENTRICITY,INCLINATION,RA_OF_ASC_NODE,ARG_OF_PERICENTER,MEAN_ANOMALY,BSTAR,MEAN_MOTION_DOT,MEAN_MOTION_DDOT,TLE_LINE0,TLE_LINE1,TLE_LINE2,SEMIMAJOR_AXIS,PERIOD,APOGEE,PERIGEE,DECAYED
52474.0,STARLINK-3855,PAYLOAD,2022-11-02 23:59:00,15.08854463,0.0001678,53.2161,137.9813,47.4124,312.701,0.00030767,4.614e-05,0.0,0 STARLINK-3855,1 52474U 22049Z   22306.99930561  .00004614  00000-0  30767-3 0  9995,2 52474  53.2161 137.9813 0001678  47.4124 312.7010 15.08854463 27960,6917.8359999999975,95.437,540.862,538.54,0.0
52474.0,STARLINK-3855,PAYLOAD,2022-11-03 06:20:32,15.08843873,0.0002222,53.2147,136.7928,51.6479,308.4712,0.0001431,1.99e-05,0.0,0 STARLINK-3855,1 52474U 22049Z   22307.26426187  .00001990  00000-0  14310-3 0  9990,2 52474  53.2147 136.7928 0002222  51.6479 308.4712 15.08843873 27845,6917.869000000002,95.437,541.271,538.196,0.0
52474.0,STARLINK-3855,PAYLOAD,2022-11-03 19:03:41,15.08770001,0.000251,53.2158,134.4132,65.8304,294.295,0.002395,0.00037962,0.0,0 STARLINK-3855,1 52474U 22049Z   22307.79422848  .00037962  00000-0  23950-2 0  9995,2 52474  53.2158 134.4132 0002510  65.8304 294.2950 15.08770001 28088,6918.094,95.442,541.696,538.2230000000002,0.0
52474.0,STARLINK-3855,PAYLOAD,2022-11-03 20:39:04,15.08776263,0.0002504,53.216,134.1158,64.9124,295.2127,0.0023081,0.00036573,0.0,0 STARLINK-3855,1 52474U 22049Z   22307.86046643  .00036573  00000-0  23081-2 0  9990,2 52474  53.2160 134.1158 0002504  64.9124 295.2127 15.08776263 27935,6918.075,95.442,541.673,538.2080000000002,0.0
52474.0,STARLINK-3855,PAYLOAD,2022-11-03 23:49:45,15.08864807,0.0001756,53.216,133.5207,51.8908,308.2242,-0.00026044,-4.434e-05,0.0,0 STARLINK-3855,1 52474U 22049Z   22307.99289319 -.00004434  00000-0 -26044-3 0  9999,2 52474  53.2160 133.5207 0001756  51.8908 308.2242 15.08864807 28112,6917.805,95.436,540.884,538.455,0.0
52474.0,STARLINK-3855,PAYLOAD,2022-11-04 12:32:52,15.08843334,0.0001983,53.216,131.1417,49.6881,310.4285,7.9851e-05,9.83e-06,0.0,0 STARLINK-3855,1 52474U 22049Z   22308.52282463  .00000983  00000-0  79851-4 0  9990,2 52474  53.2160 131.1417 0001983  49.6881 310.4285 15.08843334 28198,6917.87,95.437,541.107,538.363,0.0
52474.0,STARLINK-3855,PAYLOAD,2022-11-04 18:54:24,15.0884337,0.0001809,53.2166,129.9532,46.9266,313.1878,3.8235e-05,3.2e-06,0.0,0 STARLINK-3855,1 52474U 22049Z   22308.78778319  .00000320  00000-0  38235-4 0  9994,2 52474  53.2166 129.9532 0001809  46.9266 313.1878 15.08843370 28076,6917.87,95.437,540.987,538.484,0.0
52474.0,STARLINK-3855,PAYLOAD,2022-11-05 12:23:39,15.08834684,0.0001889,53.2163,126.6812,50.3241,309.7917,-3.8925e-05,-9.08e-06,0.0,0 STARLINK-3855,1 52474U 22049Z   22309.51642780 -.00000908  00000-0 -38925-4 0  9998,2 52474  53.2163 126.6812 0001889  50.3241 309.7917 15.08834684 28341,6917.897,95.438,541.068,538.455,0.0
52474.0,STARLINK-3855,PAYLOAD,2022-11-05 18:45:12,15.08818868,0.0001896,53.2162,125.4916,49.4863,310.6294,-0.00023107,-3.962e-05,0.0,0 STARLINK-3855,1 52474U 22049Z   22309.78139735 -.00003962  00000-0 -23107-3 0  9996,2 52474  53.2162 125.4916 0001896  49.4863 310.6294 15.08818868 28388,6917.945,95.439,541.122,538.498,0.0
52474.0,STARLINK-3855,PAYLOAD,2022-11-06 04:17:31,15.08818905,0.000203,53.2168,123.7076,48.9714,311.1453,-0.00021691,-3.737e-05,0.0,0 STARLINK-3855,1 52474U 22049Z   22310.17884203 -.00003737  00000-0 -21691-3 0  9994,2 52474  53.2168 123.7076 0002030  48.9714 311.1453 15.08818905 28286,6917.945,95.439,541.214,538.406,0.0
52474.0,STARLINK-3855,PAYLOAD,2022-11-06 20:11:23,15.08820623,0.000191,53.2165,120.734,48.9375,311.1782,-4.9248e-05,-1.071e-05,0.0,0 STARLINK-3855,1 52474U 22049Z   22310.84124876 -.00001071  00000-0 -49248-4 0  9999,2 52474  53.2165 120.7340 0001910  48.9375 311.1782 15.08820623 28547,6917.94,95.439,541.126,538.4830000000002,0.0
52474.0,STARLINK-3855,PAYLOAD,2022-11-07 20:02:11,15.08830744,0.0002056,53.2162,116.2732,55.6722,304.4464,0.00047115,7.216e-05,0.0,0 STARLINK-3855,1 52474U 22049Z   22311.83485927  .00007216  00000-0  47115-3 0  9991,2 52474  53.2162 116.2732 0002056  55.6722 304.4464 15.08830744 28538,6917.909000000002,95.438,541.196,538.351,0.0
52474.0,STARLINK-3855,PAYLOAD,2022-11-07 23:12:57,15.08837727,0.0001933,53.2161,115.6784,48.2912,311.8246,0.00048556,7.448e-05,0.0,0 STARLINK-3855,1 52474U 22049Z   22311.96733752  .00007448  00000-0  48556-3 0  9994,2 52474  53.2161 115.6784 0001933  48.2912 311.8246 15.08837727 28717,6917.887,95.438,541.09,538.415,0.0
52474.0,STARLINK-3855,PAYLOAD,2022-11-08 13:31:25,15.08854067,0.0001911,53.2159,113.0019,48.7129,311.4028,0.00059201,9.15e-05,0.0,0 STARLINK-3855,1 52474U 22049Z   22312.56349231  .00009150  00000-0  59201-3 0  9997,2 52474  53.2159 113.0019 0001911  48.7129 311.4028 15.08854067 28640,6917.837,95.437,541.024,538.38,0.0
52474.0,STARLINK-3855,PAYLOAD,2022-11-09 19:43:44,15.08834985,0.0001973,53.2161,107.352,45.5107,314.6046,-0.00051695,-8.505e-05,0.0,0 STARLINK-3855,1 52474U 22049Z   22313.82204216 -.00008505  00000-0 -51695-3 0  9994,2 52474  53.2161 107.3520 0001973  45.5107 314.6046 15.08834985 28995,6917.896,95.438,541.126,538.396,0.0
52474.0,STARLINK-3855,PAYLOAD,2022-11-10 03:40:40,15.08825219,0.0001918,53.216,105.8654,48.5212,311.5945,-0.00022977,-3.942e-05,0.0,0 STARLINK-3855,1 52474U 22049Z   22314.15324490 -.00003942  00000-0 -22977-3 0  9999,2 52474  53.2160 105.8654 0001918  48.5212 311.5945 15.08825219 28886,6917.926,95.438,541.117,538.464,0.0
52474.0,STARLINK-3855,PAYLOAD,2022-11-10 19:34:32,15.08831015,0.0001989,53.2164,102.8918,47.3003,312.8156,0.00069649,0.00010811,0.0,0 STARLINK-3855,1 52474U 22049Z   22314.81565402  .00010811  00000-0  69649-3 0  9990,2 52474  53.2164 102.8918 0001989  47.3003 312.8156 15.08831015 28983,6917.908,95.438,541.149,538.3969999999998,0.0
52474.0,STARLINK-3855,PAYLOAD,2022-11-11 03:31:28,15.08838409,0.0002026,53.2165,101.405,47.5568,312.5596,0.00068118,0.00010569,0.0,0 STARLINK-3855,1 52474U 22049Z   22315.14685463  .00010569  00000-0  68118-3 0  9997,2 52474  53.2165 101.4050 0002026  47.5568 312.5596 15.08838409 29190,6917.885,95.438,541.1519999999998,538.349,0.0
52474.0,STARLINK-3855,PAYLOAD,2022-11-11 13:03:46,15.08850618,0.0002078,53.2167,99.6209,47.4089,312.7078,0.00080766,0.00012593,0.0,0 STARLINK-3855,1 52474U 22049Z   22315.54429297  .00012593  00000-0  80766-3 0  9994,2 52474  53.2167  99.6209 0002078  47.4089 312.7078 15.08850618 29092,6917.848000000001,95.437,541.15,538.275,0.0
52474.0,STARLINK-3855,PAYLOAD,2022-11-11 16:14:33,15.08855524,0.0002084,53.2168,99.0262,47.6815,312.4354,0.00087351,0.00013647,0.0,0 STARLINK-3855,1 52474U 22049Z   22315.67677147  .00013647  00000-0  87351-3 0  9995,2 52474  53.2168  99.0262 0002084  47.6815 312.4354 15.08855524 29110,6917.833000000001,95.437,541.14,538.256,0.0
52474.0,STARLINK-3855,PAYLOAD,2022-11-12 14:29:56,15.08852621,0.0002111,53.2172,94.8635,48.7491,311.3683,0.00032058,4.819e-05,0.0,0 STARLINK-3855,1 52474U 22049Z   22316.60412724  .00004819  00000-0  32058-3 0  9992,2 52474  53.2172  94.8635 0002111  48.7491 311.3683 15.08852621 29416,6917.842,95.437,541.1669999999998,538.246,0.0
52474.0,STARLINK-3855,PAYLOAD,2022-11-12 16:05:19,15.08853092,0.0002111,53.2177,94.5674,47.7696,312.3475,0.00028488,4.25e-05,0.0,0 STARLINK-3855,1 52474U 22049Z   22316.67036635  .00004250  00000-0  28488-3 0  9993,2 52474  53.2177  94.5674 0002111  47.7696 312.3475 15.08853092 29263,6917.84,95.437,541.1659999999998,538.245,0.0
52474.0,STARLINK-3855,PAYLOAD,2022-11-13 09:34:33,15.0885043,0.0002109,53.2175,91.2955,48.048,312.0692,9.1834e-05,1.174e-05,0.0,0 STARLINK-3855,1 52474U 22049Z   22317.39900238  .00001174  00000-0  91834-4 0  9990,2 52474  53.2175  91.2955 0002109  48.0480 312.0692 15.08850430 29530,6917.849,95.437,541.172,538.255,0.0
52474.0,STARLINK-3855,PAYLOAD,2022-11-13 15:56:06,15.08841247,0.0002007,53.2176,90.1056,44.5444,315.5709,-6.1737e-05,-1.271e-05,0.0,0 STARLINK-3855,1 52474U 22049Z   22317.66396605 -.00001271  00000-0 -61737-4 0  9996,2 52474  53.2176  90.1056 0002007  44.5444 315.5709 15.08841247 29576,6917.877,95.437,541.13,538.3530000000002,0.0
52474.0,STARLINK-3855,PAYLOAD,2022-11-14 09:25:21,15.08834561,0.0001966,53.2172,86.8352,42.2882,317.8262,-0.00014647,-2.618e-05,0.0,0 STARLINK-3855,1 52474U 22049Z   22318.39260748 -.00002618  00000-0 -14647-3 0  9998,2 52474  53.2172  86.8352 0001966  42.2882 317.8262 15.08834561 29522,6917.897,95.438,541.122,538.4019999999998,0.0
52474.0,STARLINK-3855,PAYLOAD,2022-11-14 17:22:17,15.088389,0.0001997,53.2183,85.3489,40.0958,320.0181,-1.7983e-05,-5.74e-06,0.0,0 STARLINK-3855,1 52474U 22049Z   22318.72381014 -.00000574  00000-0 -17983-4 0  9991,2 52474  53.2183  85.3489 0001997  40.0958 320.0181 15.08838900 29575,6917.884,95.438,541.13,538.367,0.0
52474.0,STARLINK-3855,PAYLOAD,2022-11-14 18:57:40,15.08838259,0.0002019,53.2183,85.0514,39.1333,320.9805,-2.5949e-05,-7.01e-06,0.0,0 STARLINK-3855,1 52474U 22049Z   22318.79005048 -.00000701  00000-0 -25949-4 0  9991,2 52474  53.2183  85.0514 0002019  39.1333 320.9805 15.08838259 29741,6917.886,95.438,541.1469999999998,538.354,0.0
52474.0,STARLINK-3855,PAYLOAD,2022-11-15 12:26:54,15.08832776,0.0001974,53.2184,81.7803,38.8217,321.2917,0.0001011,1.321e-05,0.0,0 STARLINK-3855,1 52474U 22049Z   22319.51869181  .00001321  00000-0  10110-3 0  9998,2 52474  53.2184  81.7803 0001974  38.8217 321.2917 15.08832776 29692,6917.901999999999,95.438,541.133,538.4019999999998,0.0
52474.0,STARLINK-3855,PAYLOAD,2022-11-15 15:37:41,15.08833291,0.0001983,53.2184,81.1856,39.0466,321.0669,0.00010829,1.435e-05,0.0,0 STARLINK-3855,1 52474U 22049Z   22319.65117294  .00001435  00000-0  10829-3 0  9997,2 52474  53.2184  81.1856 0001983  39.0466 321.0669 15.08833291 29711,6917.901,95.438,541.138,538.394,0.0
